AEROCUBE 6B             
1 40046U 14033AN  26116.43457395  .00008015  00000+0  65803-3 0  9999
2 40046  97.7187 283.6573 0037069 178.2624 181.8735 14.98923714639003
CANX-4                  
1 40055U 14034C   26116.87926571  .00000913  00000+0  12463-3 0  9998
2 40055  98.3194 350.2931 0012894 170.3243 189.8219 14.81168211636935
CANX-5                  
1 40056U 14034D   26116.60807250  .00001015  00000+0  13770-3 0  9998
2 40056  98.3197 350.0523 0012870 171.4006 188.7428 14.81185344627708
UKUBE-1                 
1 40074U 14037F   26116.71960965  .00010736  00000+0  61675-3 0  9993
2 40074  98.4248 114.6212 0001843  46.5426 313.5956 15.12723325640779
BRITE-PL2 (HEWELIUSZ)   
1 40119U 14049B   26116.81887962  .00001588  00000+0  15281-3 0  9999
2 40119  97.9036 228.4478 0012692 281.0348  78.9444 14.94397876633772
AEROCUBE 5C             
1 40965U 15058B   26116.80314487  .00004113  00000+0  36681-3 0  9999
2 40965  64.7676  62.4041 0129610  83.4426 278.1421 14.91143504357995
AEROCUBE 7              
1 40966U 15058C   26116.81063372  .00005921  00000+0  47802-3 0  9990
2 40966  64.7636  45.6855 0119500  82.2266 279.2396 14.95296653358277
FOX-1A (AO-85)          
1 40967U 15058D   26116.29713703  .00003950  00000+0  35850-3 0  9993
2 40967  64.7746  80.2000 0128561  76.9268 284.6158 14.90641989105835
SINOD-D 1               
1 40968U 15058E   26116.86154090  .00005714  00000+0  46238-3 0  9997
2 40968  64.7756  59.5899 0117081  73.5877 287.8069 14.95465890108981
SNAP-3 ALICE            
1 40970U 15058G   26116.78829177  .00086617  00000+0  14442-2 0  9998
2 40970  64.7536 280.2393 0031510  44.2058 316.1592 15.50930976108891
LMRST-SAT               
1 40971U 15058H   26116.84332606  .00003594  00000+0  32933-3 0  9991
2 40971  64.7754  74.7451 0130437  78.7368 282.8370 14.90274037105903
SNAP-3 EDDIE            
1 40972U 15058J   26116.81688331  .00081621  00000+0  13073-2 0  9998
2 40972  64.7455 271.2273 0032118  47.6887 312.6968 15.52048816111035
PROPCUBE 3              
1 40973U 15058K   26116.80315218  .00005382  00000+0  44922-3 0  9997
2 40973  64.7695  53.0316 0122705  80.3313 281.1636 14.93879889107129
BISONSAT                
1 40974U 15058L   26116.83061378  .00014130  00000+0  70552-3 0  9995
2 40974  64.7619 339.5417 0077736  70.2786 290.6702 15.15072693107835
SNAP-3 JIMI             
1 40975U 15058M   26116.85534396  .00007486  00000+0  52171-3 0  9996
2 40975  64.7672  22.1132 0104752  76.5429 284.7336 15.01721725106519
PROPCUBE 1 (FLORA)      
1 40976U 15058N   26116.54960089  .00003534  00000+0  33673-3 0  9991
2 40976  64.7733  95.2353 0129282  81.1230 280.4492 14.88914985108571
SINOD-D 3               
1 40977U 15058P   26116.62488948  .00005520  00000+0  46928-3 0  9994
2 40977  64.7721  76.7790 0117765  78.6758 282.7560 14.93594565107054
