[{"OBJECT_NAME":"AEROCUBE 6B","OBJECT_ID":"2014-033AN","EPOCH":"2026-04-26T10:25:47.189280","MEAN_MOTION":14.98923714,"ECCENTRICITY":0.00370695,"INCLINATION":97.7187,"RA_OF_ASC_NODE":283.6573,"ARG_OF_PERICENTER":178.2624,"MEAN_ANOMALY":181.8735,"EPHEMERIS_TYPE":0,"CLASSIFICATION_TYPE":"U","NORAD_CAT_ID":40046,"ELEMENT_SET_NO":999,"REV_AT_EPOCH":63900,"BSTAR":0.00065803172,"MEAN_MOTION_DOT":8.015e-5,"MEAN_MOTION_DDOT":0},{"OBJECT_NAME":"CANX-4","OBJECT_ID":"2014-034C","EPOCH":"2026-04-26T21:06:08.557344","MEAN_MOTION":14.81168211,"ECCENTRICITY":0.0012894,"INCLINATION":98.3194,"RA_OF_ASC_NODE":350.2931,"ARG_OF_PERICENTER":170.3243,"MEAN_ANOMALY":189.8219,"EPHEMERIS_TYPE":0,"CLASSIFICATION_TYPE":"U","NORAD_CAT_ID":40055,"ELEMENT_SET_NO":999,"REV_AT_EPOCH":63693,"BSTAR":0.00012463,"MEAN_MOTION_DOT":9.13e-6,"MEAN_MOTION_DDOT":0},{"OBJECT_NAME":"CANX-5","OBJECT_ID":"2014-034D","EPOCH":"2026-04-26T14:35:37.464000","MEAN_MOTION":14.81185344,"ECCENTRICITY":0.001287,"INCLINATION":98.3197,"RA_OF_ASC_NODE":350.0523,"ARG_OF_PERICENTER":171.4006,"MEAN_ANOMALY":188.7428,"EPHEMERIS_TYPE":0,"CLASSIFICATION_TYPE":"U","NORAD_CAT_ID":40056,"ELEMENT_SET_NO":999,"REV_AT_EPOCH":62770,"BSTAR":0.0001377,"MEAN_MOTION_DOT":1.015e-5,"MEAN_MOTION_DDOT":0},{"OBJECT_NAME":"UKUBE-1","OBJECT_ID":"2014-037F","EPOCH":"2026-04-26T17:16:14.273760","MEAN_MOTION":15.12723325,"ECCENTRICITY":0.0001843,"INCLINATION":98.4248,"RA_OF_ASC_NODE":114.6212,"ARG_OF_PERICENTER":46.5426,"MEAN_ANOMALY":313.5956,"EPHEMERIS_TYPE":0,"CLASSIFICATION_TYPE":"U","NORAD_CAT_ID":40074,"ELEMENT_SET_NO":999,"REV_AT_EPOCH":64077,"BSTAR":0.00061675,"MEAN_MOTION_DOT":0.00010736,"MEAN_MOTION_DDOT":0},{"OBJECT_NAME":"BRITE-PL2 (HEWELIUSZ)","OBJECT_ID":"2014-049B","EPOCH":"2026-04-26T19:39:11.199168","MEAN_MOTION":14.94397876,"ECCENTRICITY":0.0012692,"INCLINATION":97.9036,"RA_OF_ASC_NODE":228.4478,"ARG_OF_PERICENTER":281.0348,"MEAN_ANOMALY":78.9444,"EPHEMERIS_TYPE":0,"CLASSIFICATION_TYPE":"U","NORAD_CAT_ID":40119,"ELEMENT_SET_NO":999,"REV_AT_EPOCH":63377,"BSTAR":0.00015281,"MEAN_MOTION_DOT":1.588e-5,"MEAN_MOTION_DDOT":0},{"OBJECT_NAME":"AEROCUBE 5C","OBJECT_ID":"2015-058B","EPOCH":"2026-04-26T19:16:31.716768","MEAN_MOTION":14.91143504,"ECCENTRICITY":0.012961,"INCLINATION":64.7676,"RA_OF_ASC_NODE":62.4041,"ARG_OF_PERICENTER":83.4426,"MEAN_ANOMALY":278.1421,"EPHEMERIS_TYPE":0,"CLASSIFICATION_TYPE":"U","NORAD_CAT_ID":40965,"ELEMENT_SET_NO":999,"REV_AT_EPOCH":35799,"BSTAR":0.00036681,"MEAN_MOTION_DOT":4.113e-5,"MEAN_MOTION_DDOT":0},{"OBJECT_NAME":"AEROCUBE 7","OBJECT_ID":"2015-058C","EPOCH":"2026-04-26T19:27:18.753408","MEAN_MOTION":14.95296653,"ECCENTRICITY":0.01195,"INCLINATION":64.7636,"RA_OF_ASC_NODE":45.6855,"ARG_OF_PERICENTER":82.2266,"MEAN_ANOMALY":279.2396,"EPHEMERIS_TYPE":0,"CLASSIFICATION_TYPE":"U","NORAD_CAT_ID":40966,"ELEMENT_SET_NO":999,"REV_AT_EPOCH":35827,"BSTAR":0.00047802,"MEAN_MOTION_DOT":5.921e-5,"MEAN_MOTION_DDOT":0},{"OBJECT_NAME":"FOX-1A (AO-85)","OBJECT_ID":"2015-058D","EPOCH":"2026-04-26T07:07:52.639392","MEAN_MOTION":14.90641989,"ECCENTRICITY":0.0128561,"INCLINATION":64.7746,"RA_OF_ASC_NODE":80.2,"ARG_OF_PERICENTER":76.9268,"MEAN_ANOMALY":284.6158,"EPHEMERIS_TYPE":0,"CLASSIFICATION_TYPE":"U","NORAD_CAT_ID":40967,"ELEMENT_SET_NO":999,"REV_AT_EPOCH":10583,"BSTAR":0.00035850003,"MEAN_MOTION_DOT":3.95e-5,"MEAN_MOTION_DDOT":0},{"OBJECT_NAME":"SINOD-D 1","OBJECT_ID":"2015-058E","EPOCH":"2026-04-26T20:40:37.133760","MEAN_MOTION":14.9546589,"ECCENTRICITY":0.0117081,"INCLINATION":64.7756,"RA_OF_ASC_NODE":59.5899,"ARG_OF_PERICENTER":73.5877,"MEAN_ANOMALY":287.8069,"EPHEMERIS_TYPE":0,"CLASSIFICATION_TYPE":"U","NORAD_CAT_ID":40968,"ELEMENT_SET_NO":999,"REV_AT_EPOCH":10898,"BSTAR":0.00046238,"MEAN_MOTION_DOT":5.714e-5,"MEAN_MOTION_DDOT":0},{"OBJECT_NAME":"SNAP-3 ALICE","OBJECT_ID":"2015-058G","EPOCH":"2026-04-26T18:55:08.408928","MEAN_MOTION":15.50930976,"ECCENTRICITY":0.003151,"INCLINATION":64.7536,"RA_OF_ASC_NODE":280.2393,"ARG_OF_PERICENTER":44.2058,"MEAN_ANOMALY":316.1592,"EPHEMERIS_TYPE":0,"CLASSIFICATION_TYPE":"U","NORAD_CAT_ID":40970,"ELEMENT_SET_NO":999,"REV_AT_EPOCH":10889,"BSTAR":0.0014442,"MEAN_MOTION_DOT":0.00086617,"MEAN_MOTION_DDOT":0},{"OBJECT_NAME":"LMRST-SAT","OBJECT_ID":"2015-058H","EPOCH":"2026-04-26T20:14:23.371584","MEAN_MOTION":14.90274037,"ECCENTRICITY":0.0130437,"INCLINATION":64.7754,"RA_OF_ASC_NODE":74.7451,"ARG_OF_PERICENTER":78.7368,"MEAN_ANOMALY":282.837,"EPHEMERIS_TYPE":0,"CLASSIFICATION_TYPE":"U","NORAD_CAT_ID":40971,"ELEMENT_SET_NO":999,"REV_AT_EPOCH":10590,"BSTAR":0.00032933,"MEAN_MOTION_DOT":3.594e-5,"MEAN_MOTION_DDOT":0},{"OBJECT_NAME":"SNAP-3 EDDIE","OBJECT_ID":"2015-058J","EPOCH":"2026-04-26T19:36:18.717984","MEAN_MOTION":15.52048816,"ECCENTRICITY":0.0032118,"INCLINATION":64.7455,"RA_OF_ASC_NODE":271.2273,"ARG_OF_PERICENTER":47.6887,"MEAN_ANOMALY":312.6968,"EPHEMERIS_TYPE":0,"CLASSIFICATION_TYPE":"U","NORAD_CAT_ID":40972,"ELEMENT_SET_NO":999,"REV_AT_EPOCH":11103,"BSTAR":0.0013073,"MEAN_MOTION_DOT":0.00081621,"MEAN_MOTION_DDOT":0},{"OBJECT_NAME":"PROPCUBE 3","OBJECT_ID":"2015-058K","EPOCH":"2026-04-26T19:16:32.348352","MEAN_MOTION":14.93879889,"ECCENTRICITY":0.0122705,"INCLINATION":64.7695,"RA_OF_ASC_NODE":53.0316,"ARG_OF_PERICENTER":80.3313,"MEAN_ANOMALY":281.1636,"EPHEMERIS_TYPE":0,"CLASSIFICATION_TYPE":"U","NORAD_CAT_ID":40973,"ELEMENT_SET_NO":999,"REV_AT_EPOCH":10712,"BSTAR":0.00044922,"MEAN_MOTION_DOT":5.382e-5,"MEAN_MOTION_DDOT":0},{"OBJECT_NAME":"BISONSAT","OBJECT_ID":"2015-058L","EPOCH":"2026-04-26T19:56:05.030592","MEAN_MOTION":15.15072693,"ECCENTRICITY":0.0077736,"INCLINATION":64.7619,"RA_OF_ASC_NODE":339.5417,"ARG_OF_PERICENTER":70.2786,"MEAN_ANOMALY":290.6702,"EPHEMERIS_TYPE":0,"CLASSIFICATION_TYPE":"U","NORAD_CAT_ID":40974,"ELEMENT_SET_NO":999,"REV_AT_EPOCH":10783,"BSTAR":0.00070552,"MEAN_MOTION_DOT":0.0001413,"MEAN_MOTION_DDOT":0},{"OBJECT_NAME":"SNAP-3 JIMI","OBJECT_ID":"2015-058M","EPOCH":"2026-04-26T20:31:41.718144","MEAN_MOTION":15.01721725,"ECCENTRICITY":0.0104752,"INCLINATION":64.7672,"RA_OF_ASC_NODE":22.1132,"ARG_OF_PERICENTER":76.5429,"MEAN_ANOMALY":284.7336,"EPHEMERIS_TYPE":0,"CLASSIFICATION_TYPE":"U","NORAD_CAT_ID":40975,"ELEMENT_SET_NO":999,"REV_AT_EPOCH":10651,"BSTAR":0.00052171,"MEAN_MOTION_DOT":7.486e-5,"MEAN_MOTION_DDOT":0},{"OBJECT_NAME":"PROPCUBE 1 (FLORA)","OBJECT_ID":"2015-058N","EPOCH":"2026-04-26T13:11:25.516896","MEAN_MOTION":14.88914985,"ECCENTRICITY":0.0129282,"INCLINATION":64.7733,"RA_OF_ASC_NODE":95.2353,"ARG_OF_PERICENTER":81.123,"MEAN_ANOMALY":280.4492,"EPHEMERIS_TYPE":0,"CLASSIFICATION_TYPE":"U","NORAD_CAT_ID":40976,"ELEMENT_SET_NO":999,"REV_AT_EPOCH":10857,"BSTAR":0.00033673,"MEAN_MOTION_DOT":3.534e-5,"MEAN_MOTION_DDOT":0},{"OBJECT_NAME":"SINOD-D 3","OBJECT_ID":"2015-058P","EPOCH":"2026-04-26T14:59:50.451072","MEAN_MOTION":14.93594565,"ECCENTRICITY":0.0117765,"INCLINATION":64.7721,"RA_OF_ASC_NODE":76.779,"ARG_OF_PERICENTER":78.6758,"MEAN_ANOMALY":282.756,"EPHEMERIS_TYPE":0,"CLASSIFICATION_TYPE":"U","NORAD_CAT_ID":40977,"ELEMENT_SET_NO":999,"REV_AT_EPOCH":10705,"BSTAR":0.00046928,"MEAN_MOTION_DOT":5.52e-5,"MEAN_MOTION_DDOT":0}]
